LEMUR-2-PETERG          
1 42841U 17042S   26068.48235713  .00023240  00000+0  81076-3 0  9993
2 42841  97.3980 253.6596 0003700 341.6938  18.4169 15.29611459473171
STARLINK-35807          
1 66358U 25254L   26068.74655106  .00025894  00000+0  88350-3 0  9996
2 66358  53.1576 232.2430 0000905  70.7680 289.3418 15.30194012 18982
